GLOBALSTAR M068         
1 32266U 07048D   24162.86831137 -.00000080  00000+0  13142-3 0  9992
2 32266  51.9904 354.1303 0001622  66.6922  39.5322 12.62791386770643
GLOBALSTAR M079         
1 37188U 10054A   24162.66247049 -.00000101  00000+0  17638-4 0  9991
2 37188  52.0015 190.7670 0000340 189.5984 308.7516 12.62270997629533
GLOBALSTAR M074         
1 37189U 10054B   24162.85464759 -.00000102  00000+0  74238-5 0  9993
2 37189  51.9990 189.5631 0000073 142.9614  28.2429 12.62269741630166
GLOBALSTAR M076         
1 37190U 10054C   24162.63923497 -.00000100  00000+0  19763-4 0  9999
2 37190  52.0004 190.3540 0000401 247.0129 266.2786 12.62262293629857
GLOBALSTAR M077         
1 37191U 10054D   24162.70938373 -.00000117  00000+0 -75873-4 0  9990
2 37191  52.0046 146.8893 0000268   6.3155 165.1048 12.62273818630234
GLOBALSTAR M075         
1 37192U 10054E   24162.46319365 -.00000070  00000+0  18661-3 0  9996
2 37192  51.9936 233.3543 0000513 149.8491 223.0209 12.62275490629064
GLOBALSTAR M073         
1 37193U 10054F   24162.73608293 -.00000114  00000+0 -57907-4 0  9995
2 37193  52.0034 146.0594 0000174 341.4125 190.3894 12.62266204630925
GLOBALSTAR M083         
1 37739U 11033A   24162.96543319 -.00000089  00000+0  83295-4 0  9990
2 37739  51.9859  94.5970 0000601  69.3654   6.8866 12.62270248599979
GLOBALSTAR M088         
1 37740U 11033B   24162.86588296 -.00000082  00000+0  11930-3 0  9993
2 37740  51.9753   0.7058 0000952  99.6361   4.1285 12.62264135595509
GLOBALSTAR M091         
1 37741U 11033C   24162.70106316 -.00000081  00000+0  12453-3 0  9996
2 37741  52.0012 324.1004 0001126 114.7352 258.4340 12.62263586596277
GLOBALSTAR M085         
1 37742U 11033D   24162.60829830 -.00000067  00000+0  20789-3 0  9994
2 37742  51.9872 275.7482 0000921 132.6891 240.2111 12.62271901596770
GLOBALSTAR M081         
1 37743U 11033E   24162.65553098 -.00000069  00000+0  19453-3 0  9998
2 37743  51.9967 278.1636 0000861 145.2263 321.3533 12.62265830596920
GLOBALSTAR M089         
1 37744U 11033F   24162.53740855 -.00000068  00000+0  19877-3 0  9994
2 37744  51.9922 232.8238 0000252 201.7570 266.4409 12.62264847597750
GLOBALSTAR M084         
1 38040U 11080A   24162.94007906 -.00000090  00000+0  74807-4 0  9994
2 38040  52.0007  98.6829 0000592  19.4567  61.0612 12.62263275575785
GLOBALSTAR M080         
1 38041U 11080B   24162.61680608 -.00000097  00000+0  35184-4 0  9997
2 38041  52.0056 101.1428 0000501 348.3308 182.6532 12.62273411575865
GLOBALSTAR M082         
1 38042U 11080C   24162.92716899 -.00000077  00000+0  14831-3 0  9997
2 38042  52.0092  55.6072 0001274  79.0808   2.1006 12.62270084576614
GLOBALSTAR M092         
1 38043U 11080D   24162.96960619 -.00000119  00000+0 -84319-4 0  9990
2 38043  52.0059 145.8329 0000350  23.2342  12.0948 12.62262851575070
GLOBALSTAR M090         
1 38044U 11080E   24162.93846756 -.00000074  00000+0  16520-3 0  9990
2 38044  51.9903  49.8596 0000975  79.8235 292.9498 12.62263922576730
GLOBALSTAR M086         
1 38045U 11080F   24162.96483389 -.00000080  00000+0  13521-3 0  9998
2 38045  51.9917  50.2999 0000520 158.7408 214.7865 12.62263197576682
GLOBALSTAR M097         
1 39072U 13005A   24162.75131144 -.00000085  00000+0  10324-3 0  9997
2 39072  52.0064 325.1247 0000975 119.4245 240.6719 12.62263713523902
GLOBALSTAR M093         
1 39073U 13005B   24162.88306008 -.00000081  00000+0  12477-3 0  9992
2 39073  51.9825 318.6198 0001062 122.9996 237.0973 12.62260069523877
GLOBALSTAR M094         
1 39074U 13005C   24162.64540982 -.00000074  00000+0  16520-3 0  9993
2 39074  51.9952 233.3538 0000632 154.8383 205.2514 12.62266842525455
GLOBALSTAR M096         
1 39075U 13005D   24162.57936514 -.00000068  00000+0  19827-3 0  9992
2 39075  52.0082 281.7782 0001009 134.6461 225.4488 12.62266569524361
GLOBALSTAR M078         
1 39076U 13005E   24162.87000136 -.00000208  00000+0 -57978-3 0  9994
2 39076  51.9895   5.9099 0001745  83.1179 276.9886 12.62274533523025
GLOBALSTAR M095         
1 39077U 13005F   24162.73744687 -.00000088  00000+0  89328-4 0  9996
2 39077  51.9819   3.6907 0001468 100.5619 259.5413 12.62263804522863
GLOBALSTAR M087         
1 52888U 22064A   24162.90681457 -.00000079  00000+0  93461-4 0  9993
2 52888  51.9749 230.2819 0009103 350.7039   9.3691 13.37576359 96689
